start=new Date('2023-06-13T00:00:00.000Z').valueOf();
sats=[{"INCLINATION":"53.2157","MEAN_MOTION_DDOT":"0.0000000000000","OBJECT_ID":"2022-083AM","MEAN_ELEMENT_THEORY":"SGP4","EPOCH":"2023-06-12T21:11:58.721856","OBJECT_TYPE":"PAYLOAD","ELEMENT_SET_NO":"999","GP_ID":"233801010","TLE_LINE1":"1 53167U 22083AM  23163.88331854 -.00000168  00000-0  75241-5 0  9992","PERIOD":"95.437","ECCENTRICITY":"0.00008060","FILE":"3931605","CLASSIFICATION_TYPE":"U","SITE":"AFETR","MEAN_MOTION":"15.08846664","REF_FRAME":"TEME","TIME_SYSTEM":"UTC","CENTER_NAME":"EARTH","PERIAPSIS":"539.167","MEAN_MOTION_DOT":"-0.00000168","ARG_OF_PERICENTER":"53.3157","RA_OF_ASC_NODE":"321.9036","TLE_LINE2":"2 53167  53.2157 321.9036 0000806  53.3157 306.7909 15.08846664 50477","MEAN_ANOMALY":"306.7909","OBJECT_NAME":"STARLINK-3683","REV_AT_EPOCH":"5047","SEMIMAJOR_AXIS":"6917.860","BSTAR":"0.00000752410000","LAUNCH_DATE":"2022-07-17","EPHEMERIS_TYPE":"0","RCS_SIZE":"LARGE","NORAD_CAT_ID":"53167","DECAY_DATE":null,"APOAPSIS":"540.283","COUNTRY_CODE":"US"},{"MEAN_MOTION_DOT":"0.00000208","PERIAPSIS":"539.014","CENTER_NAME":"EARTH","MEAN_ANOMALY":"277.3273","TLE_LINE2":"2 53168  53.2174 338.1687 0001054  82.7839 277.3273 15.08840658 50236","RA_OF_ASC_NODE":"338.1687","ARG_OF_PERICENTER":"82.7839","RCS_SIZE":"LARGE","EPHEMERIS_TYPE":"0","LAUNCH_DATE":"2022-07-17","BSTAR":"0.00003115500000","SEMIMAJOR_AXIS":"6917.878","REV_AT_EPOCH":"5023","OBJECT_NAME":"STARLINK-4105","COUNTRY_CODE":"US","DECAY_DATE":null,"APOAPSIS":"540.473","NORAD_CAT_ID":"53168","OBJECT_TYPE":"PAYLOAD","EPOCH":"2023-06-12T14:29:54.842208","MEAN_ELEMENT_THEORY":"SGP4","MEAN_MOTION_DDOT":"0.0000000000000","OBJECT_ID":"2022-083AN","INCLINATION":"53.2174","GP_ID":"233801260","ELEMENT_SET_NO":"999","SITE":"AFETR","CLASSIFICATION_TYPE":"U","FILE":"3931605","ECCENTRICITY":"0.00010540","PERIOD":"95.438","TLE_LINE1":"1 53168U 22083AN  23163.60410697  .00000208  00000-0  31155-4 0  9995","TIME_SYSTEM":"UTC","REF_FRAME":"TEME","MEAN_MOTION":"15.08840658"},{"MEAN_MOTION":"15.08840527","REF_FRAME":"TEME","TIME_SYSTEM":"UTC","PERIOD":"95.438","TLE_LINE1":"1 53169U 22083AP  23163.72879153 -.00000044  00000-0  15329-4 0  9999","CLASSIFICATION_TYPE":"U","FILE":"3931605","ECCENTRICITY":"0.00009610","SITE":"AFETR","ELEMENT_SET_NO":"999","GP_ID":"233802012","OBJECT_ID":"2022-083AP","MEAN_MOTION_DDOT":"0.0000000000000","INCLINATION":"53.2179","EPOCH":"2023-06-12T17:29:27.588192","MEAN_ELEMENT_THEORY":"SGP4","OBJECT_TYPE":"PAYLOAD","NORAD_CAT_ID":"53169","COUNTRY_CODE":"US","APOAPSIS":"540.409","DECAY_DATE":null,"OBJECT_NAME":"STARLINK-4117","REV_AT_EPOCH":"5044","SEMIMAJOR_AXIS":"6917.879","BSTAR":"0.00001532900000","RCS_SIZE":"LARGE","EPHEMERIS_TYPE":"0","LAUNCH_DATE":"2022-07-17","ARG_OF_PERICENTER":"83.2818","TLE_LINE2":"2 53169  53.2179 322.8720 0000961  83.2818 276.8284 15.08840527 50443","RA_OF_ASC_NODE":"322.8720","MEAN_ANOMALY":"276.8284","CENTER_NAME":"EARTH","PERIAPSIS":"539.079","MEAN_MOTION_DOT":"-0.00000044"},{"NORAD_CAT_ID":"53170","DECAY_DATE":null,"APOAPSIS":"540.585","COUNTRY_CODE":"US","BSTAR":"0.00008164600000","EPHEMERIS_TYPE":"0","LAUNCH_DATE":"2022-07-17","RCS_SIZE":"LARGE","REV_AT_EPOCH":"5032","OBJECT_NAME":"STARLINK-4095","SEMIMAJOR_AXIS":"6917.874","RA_OF_ASC_NODE":"332.3983","TLE_LINE2":"2 53170  53.2171 332.3983 0001224  93.0263 267.0870 15.08842224 50326","MEAN_ANOMALY":"267.0870","ARG_OF_PERICENTER":"93.0263","MEAN_MOTION_DOT":"0.00001012","CENTER_NAME":"EARTH","PERIAPSIS":"538.892","REF_FRAME":"TEME","TIME_SYSTEM":"UTC","MEAN_MOTION":"15.08842224","ECCENTRICITY":"0.00012240","FILE":"3931605","CLASSIFICATION_TYPE":"U","SITE":"AFETR","TLE_LINE1":"1 53170U 22083AQ  23163.76463516  .00001012  00000-0  81646-4 0  9997","PERIOD":"95.437","GP_ID":"233802257","ELEMENT_SET_NO":"999","OBJECT_TYPE":"PAYLOAD","INCLINATION":"53.2171","OBJECT_ID":"2022-083AQ","MEAN_MOTION_DDOT":"0.0000000000000","MEAN_ELEMENT_THEORY":"SGP4","EPOCH":"2023-06-12T18:21:04.477824"},{"CENTER_NAME":"EARTH","PERIAPSIS":"538.716","MEAN_MOTION_DOT":"-0.00001575","ARG_OF_PERICENTER":"83.5279","RA_OF_ASC_NODE":"307.6209","TLE_LINE2":"2 53171  53.2164 307.6209 0001491  83.5279 276.5883 15.08839334 50655","MEAN_ANOMALY":"276.5883","REV_AT_EPOCH":"5065","OBJECT_NAME":"STARLINK-4052","SEMIMAJOR_AXIS":"6917.882","BSTAR":"-0.00008086100000","EPHEMERIS_TYPE":"0","LAUNCH_DATE":"2022-07-17","RCS_SIZE":"LARGE","NORAD_CAT_ID":"53171","APOAPSIS":"540.779","DECAY_DATE":null,"COUNTRY_CODE":"US","INCLINATION":"53.2164","OBJECT_ID":"2022-083AR","MEAN_MOTION_DDOT":"0.0000000000000","MEAN_ELEMENT_THEORY":"SGP4","EPOCH":"2023-06-12T16:09:13.460544","OBJECT_TYPE":"PAYLOAD","ELEMENT_SET_NO":"999","GP_ID":"233801510","TLE_LINE1":"1 53171U 22083AR  23163.67307246 -.00001575  00000-0 -80861-4 0  9999","PERIOD":"95.438","ECCENTRICITY":"0.00014910","FILE":"3931605","CLASSIFICATION_TYPE":"U","SITE":"AFETR","MEAN_MOTION":"15.08839334","REF_FRAME":"TEME","TIME_SYSTEM":"UTC"},{"SITE":"AFETR","CLASSIFICATION_TYPE":"U","FILE":"3931605","ECCENTRICITY":"0.00011190","TLE_LINE1":"1 53172U 22083AS  23163.88974881  .00000455  00000-0  46672-4 0  9994","PERIOD":"95.437","TIME_SYSTEM":"UTC","REF_FRAME":"TEME","MEAN_MOTION":"15.08845692","OBJECT_TYPE":"PAYLOAD","EPOCH":"2023-06-12T21:21:14.297184","MEAN_ELEMENT_THEORY":"SGP4","OBJECT_ID":"2022-083AS","MEAN_MOTION_DDOT":"0.0000000000000","INCLINATION":"53.2168","GP_ID":"233801760","ELEMENT_SET_NO":"999","RCS_SIZE":"LARGE","EPHEMERIS_TYPE":"0","LAUNCH_DATE":"2022-07-17","BSTAR":"0.00004667200000","SEMIMAJOR_AXIS":"6917.863","OBJECT_NAME":"STARLINK-4299","REV_AT_EPOCH":"5033","COUNTRY_CODE":"US","APOAPSIS":"540.502","DECAY_DATE":null,"NORAD_CAT_ID":"53172","MEAN_MOTION_DOT":"0.00000455","PERIAPSIS":"538.954","CENTER_NAME":"EARTH","MEAN_ANOMALY":"272.6819","TLE_LINE2":"2 53172  53.2168 331.7964 0001119  87.4301 272.6819 15.08845692 50337","RA_OF_ASC_NODE":"331.7964","ARG_OF_PERICENTER":"87.4301"},{"NORAD_CAT_ID":"53173","DECAY_DATE":null,"APOAPSIS":"540.487","COUNTRY_CODE":"US","REV_AT_EPOCH":"5058","OBJECT_NAME":"STARLINK-4300","SEMIMAJOR_AXIS":"6917.880","BSTAR":"0.00002318400000","LAUNCH_DATE":"2022-07-17","EPHEMERIS_TYPE":"0","RCS_SIZE":"LARGE","ARG_OF_PERICENTER":"79.8502","RA_OF_ASC_NODE":"312.6833","TLE_LINE2":"2 53173  53.2194 312.6833 0001072  79.8502 280.2611 15.08839988 50589","MEAN_ANOMALY":"280.2611","CENTER_NAME":"EARTH","PERIAPSIS":"539.004","MEAN_MOTION_DOT":"0.00000081","MEAN_MOTION":"15.08839988","REF_FRAME":"TEME","TIME_SYSTEM":"UTC","TLE_LINE1":"1 53173U 22083AT  23163.71128453  .00000081  00000-0  23184-4 0  9991","PERIOD":"95.438","ECCENTRICITY":"0.00010720","FILE":"3931605","CLASSIFICATION_TYPE":"U","SITE":"AFETR","ELEMENT_SET_NO":"999","GP_ID":"233802512","INCLINATION":"53.2194","OBJECT_ID":"2022-083AT","MEAN_MOTION_DDOT":"0.0000000000000","MEAN_ELEMENT_THEORY":"SGP4","EPOCH":"2023-06-12T17:04:14.983392","OBJECT_TYPE":"PAYLOAD"},{"MEAN_MOTION_DOT":"0.00003055","CENTER_NAME":"EARTH","PERIAPSIS":"538.989","TLE_LINE2":"2 53174  53.2180 346.9644 0001167  75.3570 284.7551 15.08823416 50127","RA_OF_ASC_NODE":"346.9644","MEAN_ANOMALY":"284.7551","ARG_OF_PERICENTER":"75.3570","BSTAR":"0.00021004000000","RCS_SIZE":"LARGE","EPHEMERIS_TYPE":"0","LAUNCH_DATE":"2022-07-17","OBJECT_NAME":"STARLINK-4205","REV_AT_EPOCH":"5012","SEMIMAJOR_AXIS":"6917.931","NORAD_CAT_ID":"53174","COUNTRY_CODE":"US","APOAPSIS":"540.603","DECAY_DATE":null,"OBJECT_TYPE":"PAYLOAD","MEAN_MOTION_DDOT":"0.0000000000000","OBJECT_ID":"2022-083AU","INCLINATION":"53.2180","EPOCH":"2023-06-12T20:55:26.311584","MEAN_ELEMENT_THEORY":"SGP4","GP_ID":"233802757","ELEMENT_SET_NO":"999","CLASSIFICATION_TYPE":"U","FILE":"3931605","ECCENTRICITY":"0.00011670","SITE":"AFETR","TLE_LINE1":"1 53174U 22083AU  23163.87183231  .00003055  00000-0  21004-3 0  9996","PERIOD":"95.439","REF_FRAME":"TEME","TIME_SYSTEM":"UTC","MEAN_MOTION":"15.08823416"},{"TIME_SYSTEM":"UTC","REF_FRAME":"TEME","MEAN_MOTION":"15.08846999","SITE":"AFETR","ECCENTRICITY":"0.00010970","FILE":"3931605","CLASSIFICATION_TYPE":"U","TLE_LINE1":"1 53175U 22083AV  23163.93437775  .00000488  00000-0  48757-4 0  9991","PERIOD":"95.437","GP_ID":"233801011","ELEMENT_SET_NO":"999","OBJECT_TYPE":"PAYLOAD","MEAN_ELEMENT_THEORY":"SGP4","EPOCH":"2023-06-12T22:25:30.237600","INCLINATION":"53.2177","MEAN_MOTION_DDOT":"0.0000000000000","OBJECT_ID":"2022-083AV","APOAPSIS":"540.483","DECAY_DATE":null,"COUNTRY_CODE":"US","NORAD_CAT_ID":"53175","EPHEMERIS_TYPE":"0","LAUNCH_DATE":"2022-07-17","RCS_SIZE":"LARGE","BSTAR":"0.00004875700000","SEMIMAJOR_AXIS":"6917.859","REV_AT_EPOCH":"5013","OBJECT_NAME":"STARLINK-4292","MEAN_ANOMALY":"274.3917","RA_OF_ASC_NODE":"346.6841","TLE_LINE2":"2 53175  53.2177 346.6841 0001097  85.7201 274.3917 15.08846999 50131","ARG_OF_PERICENTER":"85.7201","MEAN_MOTION_DOT":"0.00000488","PERIAPSIS":"538.965","CENTER_NAME":"EARTH"},{"SITE":"AFETR","CLASSIFICATION_TYPE":"U","ECCENTRICITY":"0.00011580","FILE":"3931605","TLE_LINE1":"1 53176U 22083AW  23163.73979458  .00000359  00000-0  40648-4 0  9997","PERIOD":"95.438","TIME_SYSTEM":"UTC","REF_FRAME":"TEME","MEAN_MOTION":"15.08836752","OBJECT_TYPE":"PAYLOAD","EPOCH":"2023-06-12T17:45:18.251712","MEAN_ELEMENT_THEORY":"SGP4","MEAN_MOTION_DDOT":"0.0000000000000","OBJECT_ID":"2022-083AW","INCLINATION":"53.2201","GP_ID":"233801261","ELEMENT_SET_NO":"999","RCS_SIZE":"LARGE","LAUNCH_DATE":"2022-07-17","EPHEMERIS_TYPE":"0","BSTAR":"0.00004064800000","SEMIMAJOR_AXIS":"6917.890","OBJECT_NAME":"STARLINK-4294","REV_AT_EPOCH":"5045","COUNTRY_CODE":"US","DECAY_DATE":null,"APOAPSIS":"540.556","NORAD_CAT_ID":"53176","MEAN_MOTION_DOT":"0.00000359","PERIAPSIS":"538.954","CENTER_NAME":"EARTH","MEAN_ANOMALY":"262.8640","TLE_LINE2":"2 53176  53.2201 322.4756 0001158  97.2484 262.8640 15.08836752 50452","RA_OF_ASC_NODE":"322.4756","ARG_OF_PERICENTER":"97.2484"}];
